QIANFAN-60              
1 62790U 25016F   25312.11791373  .00000048  00000+0  54996-4 0  9991
2 62790  88.9730 106.6567 0017444  84.9053 275.4089 13.50973798 42554
QIANFAN-61              
1 62791U 25016G   25312.15063284  .00000052  00000+0  62336-4 0  9991
2 62791  88.9797 106.7926 0016383  84.3075 275.9943 13.50977188 42570
QIANFAN-62              
1 62792U 25016H   25312.15488785  .00000050  00000+0  58914-4 0  9994
2 62792  88.9744 106.6794 0017762  84.5274 275.7902 13.50980780 42564
QIANFAN-63              
1 62793U 25016J   25312.10545977  .00000057  00000+0  68568-4 0  9990
2 62793  88.9751 106.6336 0017839  89.4895 270.8300 13.50973965 42591
QIANFAN-64              
1 62794U 25016K   25312.14656172  .00000046  00000+0  52997-4 0  9992
2 62794  88.9737 106.6081 0015743  83.1716 277.1226 13.50975729 42595
QIANFAN-65              
1 62795U 25016L   25312.14248885  .00000056  00000+0  68312-4 0  9990
2 62795  88.9734 106.6359 0015584  84.8041 275.4888 13.50974748 42576
QIANFAN-66              
1 62796U 25016M   25312.09725669  .00000056  00000+0  67396-4 0  9996
2 62796  88.9753 106.6039 0016661  80.8085 279.4950 13.50978730 42618
QIANFAN-67              
1 62797U 25016N   25312.10138131  .00000059  00000+0  72543-4 0  9994
2 62797  88.9744 106.6324 0016682  87.0165 273.2895 13.50971603 42585
QIANFAN-68              
1 62798U 25016P   25312.09313694  .00000061  00000+0  74945-4 0  9993
2 62798  88.9747 106.6771 0016725  85.4646 274.8416 13.50973898 42561
QIANFAN-69              
1 62799U 25016Q   25312.10967692  .00000037  00000+0  38899-4 0  9990
2 62799  88.9726 106.5524 0017488  86.3159 273.9992 13.50971173 42608
QIANFAN-70              
1 62800U 25016R   25312.12594480  .00000082  00000+0  10822-3 0  9991
2 62800  88.9747 106.6818 0017013  77.5751 282.7303 13.50974329 42560
QIANFAN-71              
1 62801U 25016S   25312.12191684  .00000051  00000+0  59538-4 0  9995
2 62801  88.9740 106.6638 0017424  89.4802 270.8345 13.50974932 42563
QIANFAN-72              
1 62802U 25016T   25312.13839088  .00000064  00000+0  79558-4 0  9992
2 62802  88.9731 106.6789 0020700  95.9476 264.4035 13.50974803 42552
QIANFAN-73              
1 63159U 25046A   25312.09118157  .00000031  00000+0  29289-4 0  9993
2 63159  88.9757 323.6132 0013698 218.3947 141.6231 13.50972712 42732
QIANFAN-74              
1 63160U 25046B   25312.14874270  .00000039  00000+0  41267-4 0  9994
2 63160  88.9757 323.4956 0002054  90.9911 269.1475 13.50974646 42807
QIANFAN-75              
1 63161U 25046C   25312.13618185  .00000117  00000+0  16331-3 0  9995
2 63161  88.9759 323.7301 0014759 221.9870 138.0150 13.50985460 42677
QIANFAN-76              
1 63162U 25046D   25312.13233552 -.00000096  00000+0 -16660-3 0  9990
2 63162  88.9757 323.7113 0012331 221.9178 138.1030 13.50968844 42688
QIANFAN-77              
1 63163U 25046E   25312.13902125  .00000151  00000+0  10021-3 0  9995
2 63163  88.9757 322.0016 0014638 180.4757 179.6409 13.96081072 43621
QIANFAN-78              
1 63164U 25046F   25312.09939987  .00000005  00000+0 -10839-4 0  9994
2 63164  88.9757 323.5791 0013633 224.8526 135.1524 13.50974205 42756
QIANFAN-79              
1 63165U 25046G   25312.12808844  .00000034  00000+0  33493-4 0  9998
2 63165  88.9761 323.6824 0013360 222.7625 137.2488 13.50974369 42702
QIANFAN-80              
1 63166U 25046H   25312.14463351  .00000089  00000+0  11958-3 0  9992
2 63166  88.9758 323.3882 0012227 227.1687 132.8437 13.50976952 42860
QIANFAN-81              
1 63167U 25046J   25312.12355203  .00000111  00000+0  15303-3 0  9991
2 63167  88.9758 323.4586 0013529 214.8445 145.1821 13.50992913 42818
QIANFAN-82              
1 63168U 25046K   25312.15702437  .00000080  00000+0  10588-3 0  9995
2 63168  88.9758 323.4989 0011478 222.5362 137.4901 13.50973781 42805
QIANFAN-83              
1 63169U 25046L   25312.09580242  .00000046  00000+0  43920-4 0  9996
2 63169  88.9759 323.3497 0013075 209.1254 150.9176 13.61967528 42882
QIANFAN-84              
1 63170U 25046M   25312.11103990 -.00000027  00000+0 -59967-4 0  9991
2 63170  88.9756 323.6365 0014546 220.2211 139.7864 13.50986611 42723
QIANFAN-85              
1 63171U 25046N   25312.10759362  .00000106  00000+0  14631-3 0  9995
2 63171  88.9757 323.5087 0011848 221.6617 138.3632 13.50977907 42795
QIANFAN-86              
1 63172U 25046P   25312.11588652  .00000080  00000+0  10546-3 0  9991
2 63172  88.9760 323.3692 0009637 225.2279 134.8089 13.50975098 42872
QIANFAN-87              
1 63173U 25046Q   25312.08710221  .00000028  00000+0  24302-4 0  9995
2 63173  88.9756 323.4852 0010415 220.1021 139.9362 13.50970049 42806
QIANFAN-88              
1 63174U 25046R   25312.10355977  .00000077  00000+0  10102-3 0  9998
2 63174  88.9758 323.4371 0010628 229.3558 130.6670 13.50972997 42834
QIANFAN-89              
1 63175U 25046S   25312.14040124  .00000111  00000+0  15281-3 0  9990
2 63175  88.9759 323.6224 0015178 220.6569 139.3450 13.50975510 42731
QIANFAN-90              
1 63176U 25046T   25312.09506258  .00000009  00000+0 -43165-5 0  9991
2 63176  88.9759 323.5994 0012180 217.5102 142.5200 13.50974100 42747
QIANFAN-91              
1 66033U 25233A   25312.16533744  .00000923  00000+0  38092-3 0  9997
2 66033  88.9954  66.0114 0016769 141.2766 218.9633 14.25922639  3117
QIANFAN-92              
1 66034U 25233B   25312.16444544  .00000917  00000+0  37803-3 0  9999
2 66034  88.9953  66.0110 0016369 143.7174 216.5133 14.26004415  3112
QIANFAN-93              
1 66035U 25233C   25312.16314263  .00000932  00000+0  38373-3 0  9994
2 66035  88.9954  66.0110 0015688 143.1233 217.1042 14.26088136  3115
QIANFAN-94              
1 66036U 25233D   25312.16281294  .00000929  00000+0  38209-3 0  9996
2 66036  88.9954  66.0111 0015756 142.7899 217.4390 14.26113295  3110
QIANFAN-95              
1 66037U 25233E   25312.16237725  .00000917  00000+0  37693-3 0  9990
2 66037  88.9954  66.0110 0015714 143.1789 217.0487 14.26158417  3115
QIANFAN-96              
1 66038U 25233F   25312.16211047  .00000902  00000+0  37056-3 0  9997
2 66038  88.9954  66.0109 0016364 144.9930 215.2342 14.26162125  3114
QIANFAN-97              
1 66039U 25233G   25312.16200125  .00000912  00000+0  37456-3 0  9998
2 66039  88.9954  66.0108 0015931 144.5000 215.7257 14.26168102  3118
QIANFAN-98              
1 66040U 25233H   25312.16170263  .00000909  00000+0  37309-3 0  9992
2 66040  88.9954  66.0109 0015564 143.2909 216.9354 14.26189528  3113
QIANFAN-99              
1 66041U 25233J   25312.16153613  .00000904  00000+0  37108-3 0  9995
2 66041  88.9954  66.0108 0015698 142.4266 217.8027 14.26205026  3117
QIANFAN-100             
1 66042U 25233K   25312.16142648  .00000896  00000+0  36771-3 0  9997
2 66042  88.9954  66.0108 0016159 144.0083 216.2202 14.26220545  3117
QIANFAN-101             
1 66043U 25233L   25312.15802741  .00000524  00000+0  21069-3 0  9996
2 66043  88.9954  66.0102 0016129 142.2299 218.0030 14.26638647  3113
QIANFAN-102             
1 66044U 25233M   25312.16131130  .00000932  00000+0  38237-3 0  9993
2 66044  88.9953  66.0107 0016524 144.1113 216.1194 14.26224980  3114
QIANFAN-103             
1 66045U 25233N   25312.16094987  .00000929  00000+0  38130-3 0  9990
2 66045  88.9954  66.0108 0015908 142.9321 217.2974 14.26254201  3116
QIANFAN-104             
1 66046U 25233P   25312.16068613  .00000922  00000+0  37795-3 0  9997
2 66046  88.9954  66.0108 0015900 145.1480 215.0758 14.26274927  3113
QIANFAN-105             
1 66047U 25233Q   25312.16018534  .00000919  00000+0  37639-3 0  9998
2 66047  88.9953  66.0106 0016088 145.2731 214.9516 14.26333221  3112
QIANFAN-106             
1 66048U 25233R   25312.16024450  .00000903  00000+0  36995-3 0  9990
2 66048  88.9954  66.0106 0015958 144.9529 215.2718 14.26316457  3110
QIANFAN-107             
1 66049U 25233S   25312.15998233  .00000912  00000+0  37338-3 0  9991
2 66049  88.9953  66.0105 0016746 143.1144 217.1205 14.26345393  3112
QIANFAN-108             
1 66050U 25233T   25312.15969586  .00000902  00000+0  36919-3 0  9995
2 66050  88.9953  66.0104 0016716 144.7844 215.4458 14.26358377  3111
